{
  "type": "FeatureCollection",
  "features": [
    {
      "type": "Feature",
      "properties": {
        "norad_id": 58647,
        "name": "TIANMU-1 13",
        "group": "weather",
        "lat": 79.93652678993604,
        "lon": -48.82873488265393,
        "alt_km": 488.55103361766123,
        "timestamp": "2025-12-04T03:47:54.197916+00:00",
        "meta_object_name": "TIANMU-1 13",
        "meta_object_id": "2023-205C",
        "meta_epoch": "2025-12-03T19:33:28.014048",
        "meta_mean_motion": 15.24344574,
        "meta_eccentricity": 0.0006369,
        "meta_inclination": 97.3625,
        "meta_ra_of_asc_node": 357.6022,
        "meta_arg_of_pericenter": 307.5682,
        "meta_mean_anomaly": 52.4977,
        "meta_ephemeris_type": 0,
        "meta_classification_type": "U",
        "meta_norad_cat_id": 58647,
        "meta_element_set_no": 999,
        "meta_rev_at_epoch": 10771,
        "meta_bstar": 0.00042181,
        "meta_mean_motion_dot": 0.00010262,
        "meta_mean_motion_ddot": 0,
        "tle_line1": "1 58647U 23205C   25337.81490757  .00010262  00000+0  42181-3 0  9992",
        "tle_line2": "2 58647  97.3625 357.6022 0006369 307.5682  52.4977 15.24344574107713"
      },
      "geometry": {
        "type": "Point",
        "coordinates": [
          -48.82873488265393,
          79.93652678993604
        ]
      }
    },
    {
      "type": "Feature",
      "properties": {
        "norad_id": 58648,
        "name": "TIANMU-1 14",
        "group": "weather",
        "lat": 5.258233446107802,
        "lon": 177.9772524586205,
        "alt_km": 498.75713981442095,
        "timestamp": "2025-12-04T03:47:54.197927+00:00",
        "meta_object_name": "TIANMU-1 14",
        "meta_object_id": "2023-205D",
        "meta_epoch": "2025-12-03T20:43:57.102240",
        "meta_mean_motion": 15.24331044,
        "meta_eccentricity": 0.0007268,
        "meta_inclination": 97.3557,
        "meta_ra_of_asc_node": 357.0071,
        "meta_arg_of_pericenter": 311.6838,
        "meta_mean_anomaly": 48.3777,
        "meta_ephemeris_type": 0,
        "meta_classification_type": "U",
        "meta_norad_cat_id": 58648,
        "meta_element_set_no": 999,
        "meta_rev_at_epoch": 10772,
        "meta_bstar": 0.00042923,
        "meta_mean_motion_dot": 0.00010441,
        "meta_mean_motion_ddot": 0,
        "tle_line1": "1 58648U 23205D   25337.86385535  .00010441  00000+0  42923-3 0  9998",
        "tle_line2": "2 58648  97.3557 357.0071 0007268 311.6838  48.3777 15.24331044107725"
      },
      "geometry": {
        "type": "Point",
        "coordinates": [
          177.9772524586205,
          5.258233446107802
        ]
      }
    },
    {
      "type": "Feature",
      "properties": {
        "norad_id": 58660,
        "name": "TIANMU-1 19",
        "group": "weather",
        "lat": -32.18244137191817,
        "lon": 93.93089456906844,
        "alt_km": 486.9010319292456,
        "timestamp": "2025-12-04T03:47:54.197940+00:00",
        "meta_object_name": "TIANMU-1 19",
        "meta_object_id": "2023-208A",
        "meta_epoch": "2025-12-03T20:04:46.973856",
        "meta_mean_motion": 15.27588942,
        "meta_eccentricity": 0.0004077,
        "meta_inclination": 97.4394,
        "meta_ra_of_asc_node": 88.8933,
        "meta_arg_of_pericenter": 292.931,
        "meta_mean_anomaly": 67.1499,
        "meta_ephemeris_type": 0,
        "meta_classification_type": "U",
        "meta_norad_cat_id": 58660,
        "meta_element_set_no": 999,
        "meta_rev_at_epoch": 10746,
        "meta_bstar": 0.00054043,
        "meta_mean_motion_dot": 0.00014521,
        "meta_mean_motion_ddot": 0,
        "tle_line1": "1 58660U 23208A   25337.83665479  .00014521  00000+0  54043-3 0  9999",
        "tle_line2": "2 58660  97.4394  88.8933 0004077 292.9310  67.1499 15.27588942107461"
      },
      "geometry": {
        "type": "Point",
        "coordinates": [
          93.93089456906844,
          -32.18244137191817
        ]
      }
    },
    {
      "type": "Feature",
      "properties": {
        "norad_id": 58661,
        "name": "TIANMU-1 20",
        "group": "weather",
        "lat": 4.986785350666098,
        "lon": 89.00067098129259,
        "alt_km": 479.8530301001292,
        "timestamp": "2025-12-04T03:47:54.197950+00:00",
        "meta_object_name": "TIANMU-1 20",
        "meta_object_id": "2023-208B",
        "meta_epoch": "2025-12-03T19:55:19.357824",
        "meta_mean_motion": 15.28780512,
        "meta_eccentricity": 0.0006447,
        "meta_inclination": 97.4331,
        "meta_ra_of_asc_node": 89.3257,
        "meta_arg_of_pericenter": 303.2203,
        "meta_mean_anomaly": 56.8418,
        "meta_ephemeris_type": 0,
        "meta_classification_type": "U",
        "meta_norad_cat_id": 58661,
        "meta_element_set_no": 999,
        "meta_rev_at_epoch": 10753,
        "meta_bstar": 0.00049899,
        "meta_mean_motion_dot": 0.00013902,
        "meta_mean_motion_ddot": 0,
        "tle_line1": "1 58661U 23208B   25337.83008516  .00013902  00000+0  49899-3 0  9998",
        "tle_line2": "2 58661  97.4331  89.3257 0006447 303.2203  56.8418 15.28780512107530"
      },
      "geometry": {
        "type": "Point",
        "coordinates": [
          89.00067098129259,
          4.986785350666098
        ]
      }
    },
    {
      "type": "Feature",
      "properties": {
        "norad_id": 58662,
        "name": "TIANMU-1 21",
        "group": "weather",
        "lat": -65.95100664495476,
        "lon": 108.54641296852812,
        "alt_km": 475.2379180054768,
        "timestamp": "2025-12-04T03:47:54.197960+00:00",
        "meta_object_name": "TIANMU-1 21",
        "meta_object_id": "2023-208C",
        "meta_epoch": "2025-12-03T20:14:55.742208",
        "meta_mean_motion": 15.3124758,
        "meta_eccentricity": 0.0005967,
        "meta_inclination": 97.4379,
        "meta_ra_of_asc_node": 91.2081,
        "meta_arg_of_pericenter": 297.4494,
        "meta_mean_anomaly": 62.614,
        "meta_ephemeris_type": 0,
        "meta_classification_type": "U",
        "meta_norad_cat_id": 58662,
        "meta_element_set_no": 999,
        "meta_rev_at_epoch": 10763,
        "meta_bstar": 0.00055226,
        "meta_mean_motion_dot": 0.00016616,
        "meta_mean_motion_ddot": 0,
        "tle_line1": "1 58662U 23208C   25337.84370072  .00016616  00000+0  55226-3 0  9995",
        "tle_line2": "2 58662  97.4379  91.2081 0005967 297.4494  62.6140 15.31247580107637"
      },
      "geometry": {
        "type": "Point",
        "coordinates": [
          108.54641296852812,
          -65.95100664495476
        ]
      }
    },
    {
      "type": "Feature",
      "properties": {
        "norad_id": 58663,
        "name": "TIANMU-1 22",
        "group": "weather",
        "lat": -23.787412782335664,
        "lon": 92.57875891502101,
        "alt_km": 487.20612010732384,
        "timestamp": "2025-12-04T03:47:54.197971+00:00",
        "meta_object_name": "TIANMU-1 22",
        "meta_object_id": "2023-208D",
        "meta_epoch": "2025-12-03T20:02:29.299776",
        "meta_mean_motion": 15.27361166,
        "meta_eccentricity": 0.0003042,
        "meta_inclination": 97.4389,
        "meta_ra_of_asc_node": 88.9548,
        "meta_arg_of_pericenter": 329.3779,
        "meta_mean_anomaly": 30.7282,
        "meta_ephemeris_type": 0,
        "meta_classification_type": "U",
        "meta_norad_cat_id": 58663,
        "meta_element_set_no": 999,
        "meta_rev_at_epoch": 10747,
        "meta_bstar": 0.00049319,
        "meta_mean_motion_dot": 0.0001315,
        "meta_mean_motion_ddot": 0,
        "tle_line1": "1 58663U 23208D   25337.83506134  .00013150  00000+0  49319-3 0  9991",
        "tle_line2": "2 58663  97.4389  88.9548 0003042 329.3779  30.7282 15.27361166107470"
      },
      "geometry": {
        "type": "Point",
        "coordinates": [
          92.57875891502101,
          -23.787412782335664
        ]
      }
    },
    {
      "type": "Feature",
      "properties": {
        "norad_id": 58700,
        "name": "TIANMU-1 15",
        "group": "weather",
        "lat": -14.931544838561082,
        "lon": -22.344375694683045,
        "alt_km": 500.05451347613507,
        "timestamp": "2025-12-04T03:47:54.197981+00:00",
        "meta_object_name": "TIANMU-1 15",
        "meta_object_id": "2024-004A",
        "meta_epoch": "2025-12-03T20:38:39.742080",
        "meta_mean_motion": 15.24489156,
        "meta_eccentricity": 0.0005749,
        "meta_inclination": 97.4624,
        "meta_ra_of_asc_node": 159.3619,
        "meta_arg_of_pericenter": 334.1938,
        "meta_mean_anomaly": 25.9011,
        "meta_ephemeris_type": 0,
        "meta_classification_type": "U",
        "meta_norad_cat_id": 58700,
        "meta_element_set_no": 999,
        "meta_rev_at_epoch": 10599,
        "meta_bstar": 0.00045532,
        "meta_mean_motion_dot": 0.00011129,
        "meta_mean_motion_ddot": 0,
        "tle_line1": "1 58700U 24004A   25337.86018220  .00011129  00000+0  45532-3 0  9992",
        "tle_line2": "2 58700  97.4624 159.3619 0005749 334.1938  25.9011 15.24489156105991"
      },
      "geometry": {
        "type": "Point",
        "coordinates": [
          -22.344375694683045,
          -14.931544838561082
        ]
      }
    }
  ]
}